[{"OBJECT_NAME":"STARLINK-6063","OBJECT_ID":"2023-078AW","EPOCH":"2026-03-09T22:35:23.207712","MEAN_MOTION":15.58730037,"ECCENTRICITY":0.00035775,"INCLINATION":70.0007,"RA_OF_ASC_NODE":295.002,"ARG_OF_PERICENTER":255.2165,"MEAN_ANOMALY":104.8629,"EPHEMERIS_TYPE":0,"CLASSIFICATION_TYPE":"U","NORAD_CAT_ID":56811,"ELEMENT_SET_NO":999,"REV_AT_EPOCH":15392,"BSTAR":0.00025546943,"MEAN_MOTION_DOT":0.00019616,"MEAN_MOTION_DDOT":0},{"OBJECT_NAME":"SPACEVAN-001","OBJECT_ID":"2023-174AR","EPOCH":"2026-03-06T17:14:39.911136","MEAN_MOTION":15.56994212,"ECCENTRICITY":0.0010232,"INCLINATION":97.3882,"RA_OF_ASC_NODE":158.905,"ARG_OF_PERICENTER":98.6633,"MEAN_ANOMALY":261.5782,"EPHEMERIS_TYPE":0,"CLASSIFICATION_TYPE":"U","NORAD_CAT_ID":58295,"ELEMENT_SET_NO":999,"REV_AT_EPOCH":13019,"BSTAR":0.0002505511,"MEAN_MOTION_DOT":0.00018026,"MEAN_MOTION_DDOT":0}]
